NORAD_CAT_ID,OBJECT_NAME,OBJECT_TYPE,EPOCH,MEAN_MOTION,ECCENTRICITY,INCLINATION,RA_OF_ASC_NODE,ARG_OF_PERICENTER,MEAN_ANOMALY,BSTAR,MEAN_MOTION_DOT,MEAN_MOTION_DDOT,TLE_LINE0,TLE_LINE1,TLE_LINE2,SEMIMAJOR_AXIS,PERIOD,APOGEE,PERIGEE,DECAYED
55950.0,STARLINK-5911,PAYLOAD,2024-02-28 19:21:31,14.98321142,0.0002723,70.0011,330.0537,270.3119,89.7728,2.7643e-05,2.37e-06,0.0,0 STARLINK-5911,1 55950U 23037AN  24059.80661465  .00000237  00000-0  27643-4 0  9993,2 55950  70.0011 330.0537 0002723 270.3119  89.7728 14.98321142 53984,6950.22,96.108,573.978,570.193,0.0
55950.0,STARLINK-5911,PAYLOAD,2024-02-28 22:33:47,14.98320868,0.0002762,70.001,329.7161,269.5124,90.5719,1.1045e-05,3.9e-07,0.0,0 STARLINK-5911,1 55950U 23037AN  24059.94013588  .00000039  00000-0  11045-4 0  9994,2 55950  70.0010 329.7161 0002762 269.5124  90.5719 14.98320868 53669,6950.221,96.108,574.006,570.166,0.0
55950.0,STARLINK-5911,PAYLOAD,2024-02-29 11:22:52,14.98323938,0.0002812,70.001,328.3693,273.0085,87.0752,-9.461e-07,-1.04e-06,0.0,0 STARLINK-5911,1 55950U 23037AN  24060.47421659 -.00000104  00000-0 -94610-6 0  9992,2 55950  70.0010 328.3693 0002812 273.0085  87.0752 14.98323938 53744,6950.212,96.107,574.031,570.122,0.0
55950.0,STARLINK-5911,PAYLOAD,2024-02-29 20:59:40,14.98309494,0.0002884,70.0008,327.3588,268.152,91.9309,0.00036057,4.21e-05,0.0,0 STARLINK-5911,1 55950U 23037AN  24060.87477719  .00004210  00000-0  36057-3 0  9992,2 55950  70.0008 327.3588 0002884 268.1520  91.9309 14.98309494 54149,6950.256,96.108,574.126,570.117,0.0
55950.0,STARLINK-5911,PAYLOAD,2024-02-29 22:35:48,14.98333057,0.0002888,70.0009,327.1904,270.806,89.2768,-4.7492e-05,-6.6e-06,0.0,0 STARLINK-5911,1 55950U 23037AN  24060.94153160 -.00000660  00000-0 -47492-4 0  9994,2 55950  70.0009 327.1904 0002888 270.8060  89.2768 14.98333057 53817,6950.183,96.107,574.056,570.041,0.0
55950.0,STARLINK-5911,PAYLOAD,2024-03-01 03:24:12,14.98332231,0.000288,70.0009,326.6858,267.8166,92.2663,-9.9412e-06,-2.12e-06,0.0,0 STARLINK-5911,1 55950U 23037AN  24061.14181147 -.00000212  00000-0 -99412-5 0  9996,2 55950  70.0009 326.6858 0002880 267.8166  92.2663 14.98332231 54186,6950.186,96.107,574.053,570.049,0.0
55950.0,STARLINK-5911,PAYLOAD,2024-03-01 11:24:52,14.98340127,0.0002986,70.0011,325.8444,267.9782,92.1035,-0.00012685,-1.607e-05,0.0,0 STARLINK-5911,1 55950U 23037AN  24061.47560839 -.00001607  00000-0 -12685-3 0  9995,2 55950  70.0011 325.8444 0002986 267.9782  92.1035 14.98340127 53895,6950.162,96.106,574.102,569.951,0.0
55950.0,STARLINK-5911,PAYLOAD,2024-03-01 21:01:41,14.98331635,0.0003021,70.0007,324.8348,268.3217,91.7596,5.6837e-05,5.85e-06,0.0,0 STARLINK-5911,1 55950U 23037AN  24061.87616916  .00000585  00000-0  56837-4 0  9997,2 55950  70.0007 324.8348 0003021 268.3217  91.7596 14.98331635 53959,6950.188,96.107,574.152,569.953,0.0
55950.0,STARLINK-5911,PAYLOAD,2024-03-02 03:26:12,14.98336203,0.0002982,70.0006,324.1615,268.2351,91.8466,0.00010538,1.165e-05,0.0,0 STARLINK-5911,1 55950U 23037AN  24062.14320426  .00001165  00000-0  10538-3 0  9998,2 55950  70.0006 324.1615 0002982 268.2351  91.8466 14.98336203 54337,6950.174,96.107,574.111,569.966,0.0
55950.0,STARLINK-5911,PAYLOAD,2024-03-02 19:27:34,14.98325972,0.0002959,70.0006,322.4783,267.8925,92.1895,-1.5705e-05,-2.8e-06,0.0,0 STARLINK-5911,1 55950U 23037AN  24062.81081354 -.00000280  00000-0 -15705-4 0  9997,2 55950  70.0006 322.4783 0002959 267.8925  92.1895 14.98325972 54432,6950.205,96.107,574.127,570.014,0.0
55950.0,STARLINK-5911,PAYLOAD,2024-03-02 22:39:50,14.98327907,0.0002702,70.0015,322.1425,262.9757,97.1095,9.4781e-06,2e-07,0.0,0 STARLINK-5911,1 55950U 23037AN  24062.94433140  .00000020  00000-0  94781-5 0  9997,2 55950  70.0015 322.1425 0002702 262.9757  97.1095 14.98327907 54119,6950.199,96.107,573.942,570.186,0.0
55950.0,STARLINK-5911,PAYLOAD,2024-03-03 09:52:46,14.98334482,0.0002538,70.0015,320.9647,263.5787,96.5083,-0.00013424,-1.694e-05,0.0,0 STARLINK-5911,1 55950U 23037AN  24063.41165110 -.00001694  00000-0 -13424-3 0  9992,2 55950  70.0015 320.9647 0002538 263.5787  96.5083 14.98334482 54529,6950.179,96.107,573.808,570.28,0.0
55950.0,STARLINK-5911,PAYLOAD,2024-03-03 21:05:42,14.98334799,0.0002635,70.0009,319.7849,271.6948,88.3909,-6.137e-05,-8.25e-06,0.0,0 STARLINK-5911,1 55950U 23037AN  24063.87896895 -.00000825  00000-0 -61370-4 0  9992,2 55950  70.0009 319.7849 0002635 271.6948  88.3909 14.98334799 54256,6950.178,96.107,573.874,570.212,0.0
55950.0,STARLINK-5911,PAYLOAD,2024-03-04 03:30:14,14.98343673,0.0002823,70.0003,319.111,273.6376,86.446,0.00012362,1.383e-05,0.0,0 STARLINK-5911,1 55950U 23037AN  24064.14599675  .00001383  00000-0  12362-3 0  9993,2 55950  70.0003 319.1110 0002823 273.6376  86.4460 14.98343673 54635,6950.151,96.106,573.978,570.054,0.0
55950.0,STARLINK-5911,PAYLOAD,2024-03-04 09:54:46,14.98337356,0.0003024,70.0005,318.4379,286.0601,74.0225,3.4672e-05,3.21e-06,0.0,0 STARLINK-5911,1 55950U 23037AN  24064.41304158  .00000321  00000-0  34672-4 0  9993,2 55950  70.0005 318.4379 0003024 286.0601  74.0225 14.98337356 54676,6950.17,96.107,574.137,569.933,0.0
55950.0,STARLINK-5911,PAYLOAD,2024-03-04 22:43:51,14.98331447,0.0002624,70.0004,317.0913,265.0894,94.9966,5.0186e-05,5.06e-06,0.0,0 STARLINK-5911,1 55950U 23037AN  24064.94712259  .00000506  00000-0  50186-4 0  9999,2 55950  70.0004 317.0913 0002624 265.0894  94.9966 14.98331447 54410,6950.188,96.107,573.877,570.23,0.0
55950.0,STARLINK-5911,PAYLOAD,2024-03-05 01:56:07,14.9833531,0.0002666,70.0004,316.7549,263.6259,96.4597,8.4263e-05,9.13e-06,0.0,0 STARLINK-5911,1 55950U 23037AN  24065.08063854  .00000913  00000-0  84263-4 0  9990,2 55950  70.0004 316.7549 0002666 263.6259  96.4597 14.98335310 54438,6950.176,96.107,573.894,570.189,0.0
55950.0,STARLINK-5911,PAYLOAD,2024-03-05 21:09:45,14.98323043,0.0002714,70.0012,314.7368,270.2373,89.8475,-0.00011595,-1.476e-05,0.0,0 STARLINK-5911,1 55950U 23037AN  24065.88177266 -.00001476  00000-0 -11595-3 0  9995,2 55950  70.0012 314.7368 0002714 270.2373  89.8475 14.98323043 54890,6950.214,96.107,573.966,570.193,0.0
55950.0,STARLINK-5911,PAYLOAD,2024-03-06 01:58:09,14.98325696,0.0002617,70.001,314.2317,266.5845,93.5015,-0.00010169,-1.306e-05,0.0,0 STARLINK-5911,1 55950U 23037AN  24066.08205099 -.00001306  00000-0 -10169-3 0  9992,2 55950  70.0010 314.2317 0002617 266.5845  93.5015 14.98325696 54585,6950.206,96.107,573.89,570.252,0.0
55950.0,STARLINK-5911,PAYLOAD,2024-03-06 19:35:37,14.98326292,0.000284,70.0007,312.3802,270.3281,89.7552,-4.4326e-05,-6.22e-06,0.0,0 STARLINK-5911,1 55950U 23037AN  24066.81640959 -.00000622  00000-0 -44326-4 0  9994,2 55950  70.0007 312.3802 0002840 270.3281  89.7552 14.98326292 55031,6950.204,96.107,574.043,570.095,0.0
55950.0,STARLINK-5911,PAYLOAD,2024-03-07 10:00:50,14.98331274,0.0002784,70.0,310.8638,273.8139,86.2702,-5.2948e-05,-7.25e-06,0.0,0 STARLINK-5911,1 55950U 23037AN  24067.41724762 -.00000725  00000-0 -52948-4 0  9999,2 55950  70.0000 310.8638 0002784 273.8139  86.2702 14.98331274 54787,6950.189,96.107,573.989,570.119,0.0
55950.0,STARLINK-5911,PAYLOAD,2024-03-08 02:02:10,14.98329792,0.0002889,69.9996,309.1807,267.7217,92.3611,0.00011116,1.234e-05,0.0,0 STARLINK-5911,1 55950U 23037AN  24068.08484501  .00001234  00000-0  11116-3 0  9992,2 55950  69.9996 309.1807 0002889 267.7217  92.3611 14.98329792 55221,6950.194,96.107,574.066,570.051,0.0
55950.0,STARLINK-5911,PAYLOAD,2024-03-08 22:51:54,14.98337781,0.0003394,69.9983,306.9909,275.6977,84.3795,0.00016517,1.879e-05,0.0,0 STARLINK-5911,1 55950U 23037AN  24068.95271437  .00001879  00000-0  16517-3 0  9995,2 55950  69.9983 306.9909 0003394 275.6977  84.3795 14.98337781 55016,6950.169,96.107,574.393,569.675,0.0
55950.0,STARLINK-5911,PAYLOAD,2024-03-09 02:04:11,14.98322153,0.0003053,69.9993,306.6559,272.2353,87.8456,-9.1478e-05,-1.184e-05,0.0,0 STARLINK-5911,1 55950U 23037AN  24069.08624907 -.00001184  00000-0 -91478-4 0  9995,2 55950  69.9993 306.6559 0003053 272.2353  87.8456 14.98322153 55376,6950.217,96.108,574.204,569.96,0.0
55950.0,STARLINK-5911,PAYLOAD,2024-03-09 14:53:16,14.9830369,0.0003803,69.9974,305.3086,269.0366,91.0357,0.00019063,2.181e-05,0.0,0 STARLINK-5911,1 55950U 23037AN  24069.62033224  .00002181  00000-0  19063-3 0  9996,2 55950  69.9974 305.3086 0003803 269.0366  91.0357 14.98303690 55111,6950.274,96.109,574.782,569.496,0.0
55950.0,STARLINK-5911,PAYLOAD,2024-03-10 00:30:03,14.98366998,0.0002945,69.9964,304.2989,270.163,89.9192,-0.00056102,-6.787e-05,0.0,0 STARLINK-5911,1 55950U 23037AN  24070.02087327 -.00006787  00000-0 -56102-3 0  9998,2 55950  69.9964 304.2989 0002945 270.1630  89.9192 14.98366998 55510,6950.078,96.105,573.99,569.897,0.0
55950.0,STARLINK-5911,PAYLOAD,2024-03-10 08:30:44,14.9833378,0.0003234,69.9977,303.4572,265.9824,94.0965,-6.0437e-05,-8.14e-06,0.0,0 STARLINK-5911,1 55950U 23037AN  24070.35467954 -.00000814  00000-0 -60437-4 0  9994,2 55950  69.9977 303.4572 0003234 265.9824  94.0965 14.98333780 55565,6950.181,96.107,574.294,569.799,0.0
55950.0,STARLINK-5911,PAYLOAD,2024-03-10 14:55:16,14.98318728,0.0002991,69.9985,302.7844,271.3609,88.7207,4.9774e-05,5.01e-06,0.0,0 STARLINK-5911,1 55950U 23037AN  24070.62172378  .00000501  00000-0  49774-4 0  9999,2 55950  69.9985 302.7844 0002991 271.3609  88.7207 14.98318728 55260,6950.228,96.108,574.172,570.014,0.0
55950.0,STARLINK-5911,PAYLOAD,2024-03-10 21:19:49,14.98319383,0.0002984,69.9991,302.1112,271.7446,88.3371,5.4024e-05,5.51e-06,0.0,0 STARLINK-5911,1 55950U 23037AN  24070.88876498  .00000551  00000-0  54024-4 0  9990,2 55950  69.9991 302.1112 0002984 271.7446  88.3371 14.98319383 55642,6950.226,96.108,574.165,570.017,0.0
55950.0,STARLINK-5911,PAYLOAD,2024-03-10 22:55:57,14.98320931,0.0002964,69.9992,301.9429,271.8021,88.2798,7.2652e-05,7.74e-06,0.0,0 STARLINK-5911,1 55950U 23037AN  24070.95552377  .00000774  00000-0  72652-4 0  9999,2 55950  69.9992 301.9429 0002964 271.8021  88.2798 14.98320931 55316,6950.221,96.108,574.146,570.026,0.0
